COSMOS 2433 (720)       
1 32275U 07052A   26158.53047963 -.00000028  00000+0  00000+0 0  9991
2 32275  65.5823 316.2585 0002107 190.6205 169.3741  2.13104362144858
COSMOS 2432 (719)       
1 32276U 07052B   26158.60984478 -.00000028  00000+0  00000+0 0  9991
2 32276  65.5997 316.3832 0007892 333.9035  30.8946  2.13103443144887
COSMOS 2434 (721)       
1 32393U 07065A   26158.24705932  .00000085  00000+0  00000+0 0  9993
2 32393  64.3173 192.2510 0001095 341.2525  51.1973  2.13101527143560
COSMOS 2436 (723)       
1 32395U 07065C   26158.11793726  .00000084  00000+0  00000+0 0  9998
2 32395  64.3258 192.3275 0017143 354.6115  71.1402  2.13100381143510
COSMOS 2456 (730)       
1 36111U 09070A   26156.36211172 -.00000011  00000+0  00000+0 0  9992
2 36111  65.0050  71.3748 0005034 326.0196 218.4437  2.13103930128179
COSMOS 2457 (733)       
1 36112U 09070B   26157.12491642 -.00000011  00000+0  00000+0 0  9990
2 36112  64.9908  71.1931 0002355 128.2260  48.9476  2.13101386128193
COSMOS 2460 (732)       
1 36402U 10007C   26156.93373906 -.00000030  00000+0  00000+0 0  9995
2 36402  65.4275 314.8474 0002122 103.7485 288.7249  2.13101712126492
COSMOS 2476 (744)       
1 37867U 11064A   26158.36302253 -.00000011  00000+0  00000+0 0  9990
2 37867  65.2648  73.2028 0023091 239.6304 308.2052  2.13104067113557
COSMOS 2477 (745)       
1 37868U 11064B   26158.58951110 -.00000012  00000+0  00000+0 0  9998
2 37868  65.2715  73.2742 0020069 240.9615 300.9973  2.13103249113550
COSMOS 2475 (743)       
1 37869U 11064C   26156.29294414 -.00000008  00000+0  00000+0 0  9997
2 37869  65.2772  73.3732 0025997 253.8433 281.4335  2.13102052113512
COSMOS 2485 (747)       
1 39155U 13019A   26157.11703028 -.00000007  00000+0  00000+0 0  9996
2 39155  65.4139  73.9758 0023482 234.9271 124.8751  2.13103501102040
COSMOS 2492 (754)       
1 39620U 14012A   26158.01443692 -.00000028  00000+0  00000+0 0  9998
2 39620  65.3041 314.2816 0010535 326.6217  33.3091  2.13103539 95029
COSMOS 2500 (755)       
1 40001U 14032A   26156.30730628 -.00000032  00000+0  00000+0 0  9998
2 40001  65.2399 314.0875 0006921 182.6987 177.2913  2.13106228 93207
COSMOS 2501 (702K)      
1 40315U 14075A   26158.44627953  .00000089  00000+0  00000+0 0  9997
2 40315  63.6157 190.7092 0022453 212.1343 147.7942  2.13101441 89641
COSMOS 2514 (751)       
1 41330U 16008A   26157.96145302 -.00000029  00000+0  00000+0 0  9997
2 41330  65.0283 313.3575 0010880 197.3828 162.5771  2.13102762 80404
COSMOS 2522 (752)       
1 42939U 17055A   26158.26853041  .00000086  00000+0  00000+0 0  9998
2 42939  64.0780 192.2221 0010566 239.6526 120.3101  2.13102039 67769
COSMOS 2527 (756)       
1 43508U 18053A   26158.23016692 -.00000008  00000+0  00000+0 0  9995
2 43508  65.5725  74.2393 0007424 241.6031 118.3443  2.13102372 62063
COSMOS 2529 (757)       
1 43687U 18086A   26158.32674069  .00000085  00000+0  00000+0 0  9991
2 43687  64.2942 192.9273 0011727 256.2462 103.6914  2.13102175 59072
COSMOS 2534 (758)       
1 44299U 19030A   26158.24347285  .00000085  00000+0  00000+0 0  9999
2 44299  64.3678 192.9512 0013229 275.1737 155.4482  2.13102468 54715
COSMOS 2544 (759)       
1 44850U 19088A   26158.64414580 -.00000010  00000+0  00000+0 0  9991
2 44850  65.5607  74.0490 0013654 259.6167 100.2516  2.13102192 50518
COSMOS 2545 (760)       
1 45358U 20018A   26158.83918744 -.00000031  00000+0  00000+0 0  9995
2 45358  64.3612 312.7475 0007948 231.5141 128.4125  2.13102843 48462
COSMOS 2547 (705K)      
1 46805U 20075A   26156.21307741  .00000069  00000+0  00000+0 0  9995
2 46805  64.5987 192.8757 0009155 239.4130 120.5675  2.13100365 43650
COSMOS 2557 (706K)      
1 52984U 22075A   26155.90818447 -.00000037  00000+0  00000+0 0  9993
2 52984  64.3043 314.9179 0010156 276.0496  83.8276  2.13102273 30458
COSMOS 2559 (707K)      
1 54031U 22130A   26157.13557347 -.00000032  00000+0  00000+0 0  9991
2 54031  64.2805 314.9582 0012373 177.2217 182.7817  2.13101704 28457
COSMOS 2564 (761)       
1 54377U 22161A   26157.44814877  .00000077  00000+0  00000+0 0  9994
2 54377  64.7407 193.0683 0012054 224.2405 135.7317  2.13102053 27404
COSMOS 2569 (703K)      
1 57517U 23114A   26157.92975490 -.00000010  00000+0  00000+0 0  9992
2 57517  65.2965  72.9664 0011067 296.7940  63.1169  2.13103762 22045
COSMOS 2584 (704K)      
1 63130U 25042A   26158.28586220 -.00000011  00000+0  00000+0 0  9992
2 63130  65.0788  73.1386 0005905 230.6055 129.3655  2.13103973  9837
COSMOS 2596 (708K)      
1 65590U 25206B   26158.60067161 -.00000030  00000+0  00000+0 0  9991
2 65590  64.6401 315.3197 0011131 313.3132  44.6194  2.13100779  5700
